0 YURI 2A (BS-2A)
1 14659U 84005A   13280.73064440 -.00000027  00000-0  10000-3 0  7222
2 14659 015.1019 006.8931 0018419 120.8828 239.3085 00.99049698 72400
0 YURI 2A (BS-2A)
1 14659U 84005A   13281.74019684 -.00000006  00000-0  10000-3 0  7232
2 14659 015.1024 006.8826 0017863 121.5941 238.5895 00.99049518 72417
0 YURI 2A (BS-2A)
1 14659U 84005A   13282.74978425  .00000000  00000-0  10000-3 0  7244
2 14659 015.1022 006.8657 0013712 112.6533 247.5037 00.99045362 72426
0 YURI 2A (BS-2A)
1 14659U 84005A   13284.76886581  .00000035  00000-0  10000-3 0  7258
2 14659 015.1045 006.8511 0016969 123.6206 236.5510 00.99049398 72445
0 YURI 2A (BS-2A)
1 14659U 84005A   13285.77840525  .00000041  00000-0  10000-3 0  7266
2 14659 015.1049 006.8408 0017843 122.1942 237.9766 00.99049573 72451
0 YURI 2A (BS-2A)
1 14659U 84005A   13292.84518928 -.00000022  00000-0  10000-3 0  7272
2 14659 015.1087 006.7676 0017032 123.5340 236.6139 00.99052148 72526
